{
    "links": {
        "self": "http://www.neowsapp.com/rest/v1/neo/3842888?api_key=iIulBulltgU6a56xZRHN4H3l9WmuAYTsLGpBGhQ2"
    },
    "id": "3842888",
    "neo_reference_id": "3842888",
    "name": "(2019 LP5)",
    "designation": "2019 LP5",
    "nasa_jpl_url": "http://ssd.jpl.nasa.gov/sbdb.cgi?sstr=3842888",
    "absolute_magnitude_h": 24.1,
    "estimated_diameter": {
        "kilometers": {
            "estimated_diameter_min": 0.040230458,
            "estimated_diameter_max": 0.0899580388
        },
        "meters": {
            "estimated_diameter_min": 40.2304579834,
            "estimated_diameter_max": 89.9580388169
        },
        "miles": {
            "estimated_diameter_min": 0.0249980399,
            "estimated_diameter_max": 0.0558973165
        },
        "feet": {
            "estimated_diameter_min": 131.9896957704,
            "estimated_diameter_max": 295.1379320721
        }
    },
    "is_potentially_hazardous_asteroid": false,
    "close_approach_data": [
        {
            "close_approach_date": "2019-06-01",
            "close_approach_date_full": "2019-Jun-01 02:04",
            "epoch_date_close_approach": 1559354640000,
            "relative_velocity": {
                "kilometers_per_second": "29.6828721466",
                "kilometers_per_hour": "106858.3397277578",
                "miles_per_hour": "66397.6167047282"
            },
            "miss_distance": {
                "astronomical": "0.0231325353",
                "lunar": "8.9985562317",
                "kilometers": "3460578.008579811",
                "miles": "2150303.4636349518"
            },
            "orbiting_body": "Earth"
        }
    ],
    "orbital_data": {
        "orbit_id": "1",
        "orbit_determination_date": "2019-06-19 10:12:06",
        "first_observation_date": "2019-06-05",
        "last_observation_date": "2019-06-12",
        "data_arc_in_days": 7,
        "observations_used": 22,
        "orbit_uncertainty": "9",
        "minimum_orbit_intersection": ".0218747",
        "jupiter_tisserand_invariant": "4.325",
        "epoch_osculation": "2458641.5",
        "eccentricity": ".80430086541227",
        "semi_major_axis": "1.378095195782368",
        "inclination": "26.0653556763592",
        "ascending_node_longitude": "252.1612350558112",
        "orbital_period": "590.9044423160659",
        "perihelion_distance": ".2696920371941179",
        "perihelion_argument": "226.7525315210433",
        "aphelion_distance": "2.486498354370619",
        "perihelion_time": "2458590.503727380618",
        "mean_anomaly": "31.06874280893923",
        "mean_motion": ".6092355619953884",
        "equinox": "J2000",
        "orbit_class": {
            "orbit_class_type": "APO",
            "orbit_class_description": "Near-Earth asteroid orbits which cross the Earth’s orbit similar to that of 1862 Apollo",
            "orbit_class_range": "a (semi-major axis) > 1.0 AU; q (perihelion) < 1.017 AU"
        }
    },
    "is_sentry_object": false
}